[{"OBJECT_NAME":"GAOFEN-12 03","OBJECT_ID":"2022-069A","EPOCH":"2026-03-09T22:26:41.020800","MEAN_MOTION":14.79856399,"ECCENTRICITY":0.00023242,"INCLINATION":97.8403,"RA_OF_ASC_NODE":319.2501,"ARG_OF_PERICENTER":91.8845,"MEAN_ANOMALY":268.2634,"EPHEMERIS_TYPE":0,"CLASSIFICATION_TYPE":"U","NORAD_CAT_ID":52912,"ELEMENT_SET_NO":999,"REV_AT_EPOCH":19993,"BSTAR":0.00029245071,"MEAN_MOTION_DOT":2.154e-5,"MEAN_MOTION_DDOT":0},{"OBJECT_NAME":"CZ-6A DEB","OBJECT_ID":"2022-151TH","EPOCH":"2026-03-09T15:58:56.721792","MEAN_MOTION":14.70832733,"ECCENTRICITY":0.00725866,"INCLINATION":98.6342,"RA_OF_ASC_NODE":130.6304,"ARG_OF_PERICENTER":232.0385,"MEAN_ANOMALY":127.4247,"EPHEMERIS_TYPE":0,"CLASSIFICATION_TYPE":"U","NORAD_CAT_ID":54968,"ELEMENT_SET_NO":999,"REV_AT_EPOCH":17568,"BSTAR":0.0024245836,"MEAN_MOTION_DOT":0.00015408,"MEAN_MOTION_DDOT":0}]
